GLOBALSTAR M035         
1 25851U 99037A   25097.61148948 -.00000113  00000+0 -18831-2 0  9992
2 25851  51.9939 212.3560 0013847 224.3082 148.8185 11.04537695 88464
GLOBALSTAR M032         
1 25852U 99037B   25097.58780098 -.00000082  00000+0 -48393-3 0  9999
2 25852  51.9980  42.4719 0012193  48.4388 311.7455 11.19063499126888
GLOBALSTAR M051         
1 25853U 99037C   25097.60701416 -.00000084  00000+0 -29590-3 0  9990
2 25853  51.9786 211.1585 0001307 110.5978 249.4973 11.42205006124327
GLOBALSTAR M030         
1 25854U 99037D   25097.12567293 -.00000016  00000+0  12461-2 0  9993
2 25854  51.9914  22.9420 0003446 287.5694  72.4746 11.55102883141833
GLOBALSTAR M048         
1 25872U 99041A   25097.52448402 -.00000065  00000+0  12633-3 0  9998
2 25872  51.9340 143.6599 0013051  63.9338  88.4246 11.33855933116963
GLOBALSTAR M026         
1 25873U 99041B   25096.97183987  .00000011  00000+0  27816-2 0  9999
2 25873  52.0048 332.4949 0001990 126.2716 244.5318 11.06834032140600
GLOBALSTAR M043         
1 25874U 99041C   25097.58915200 -.00000105  00000+0 -11105-2 0  9999
2 25874  51.9393 248.3378 0013797 189.0927 250.5883 11.25692617114924
GLOBALSTAR M028         
1 25875U 99041D   25097.57977300 -.00000043  00000+0  36811-3 0  9990
2 25875  51.9646  43.6008 0062933 278.4683  80.9049 12.50580884181340
